COSMOS 2251 DEB         
1 34276U 93036LW  26074.23304778  .00002736  00000+0  60121-3 0  9996
2 34276  74.0214 269.3675 0021365  29.4344  92.0385 14.57897011899403
COSMOS 2251 DEB         
1 34297U 93036MT  26074.24267131  .00000305  00000+0  11234-3 0  9992
2 34297  74.0465 114.3657 0016890 169.5789 260.9343 14.36717898893932
COSMOS 2251 DEB         
1 34301U 93036MX  26074.19827241  .00038498  00000+0  39016-2 0  9997
2 34301  74.0047 342.0780 0004541  40.0270  80.2668 14.90717853897757
COSMOS 2251 DEB         
1 34302U 93036MY  26073.78024076  .00002635  00000+0  81715-3 0  9995
2 34302  74.1799 315.0829 0078274 144.9360 331.4889 14.39852730890458
COSMOS 2251 DEB         
1 34303U 93036MZ  26074.19753627  .00004645  00000+0  94069-3 0  9992
2 34303  74.0037 112.5951 0137640 229.8013 193.7397 14.55705933893074
COSMOS 2251 DEB         
1 34304U 93036NA  26074.08271889  .00004133  00000+0  12350-2 0  9990
2 34304  74.0141 312.1398 0126300  68.1233  49.6747 14.38695827886243
COSMOS 2251 DEB         
1 34307U 93036ND  26074.28096548  .00000693  00000+0  64006-3 0  9995
2 34307  74.0541 164.6053 0392895 335.1394  84.6233 13.54487757841155
COSMOS 2251 DEB         
1 34313U 93036NK  26074.13043359  .00539860  00000+0  74997-2 0  9990
2 34313  73.9590 107.2317 0017812 276.0958  83.8228 15.54923895904809
COSMOS 2251 DEB         
1 34314U 93036NL  26074.30223697  .00001170  00000+0  55615-3 0  9990
2 34314  74.0052 143.1670 0105500 228.9645 247.0300 14.17682600879694
COSMOS 2251 DEB         
1 34316U 93036NN  26074.25964046  .00022005  00000+0  19241-2 0  9990
2 34316  74.0639 150.8916 0012139 250.5863 109.4010 14.96636718905913
COSMOS 2251 DEB         
1 34317U 93036NP  26074.21195694  .00000781  00000+0  67302-3 0  9991
2 34317  73.9218 243.4936 0336471 215.5218 324.2806 13.65264223848817
COSMOS 2251 DEB         
1 34321U 93036NT  26073.99105891  .00002090  00000+0  54008-3 0  9994
2 34321  74.0318 342.9732 0013874  93.4642 279.3138 14.50521608898245
COSMOS 2251 DEB         
1 34323U 93036NV  26074.09901979  .00013288  00000+0  18169-2 0  9997
2 34323  73.9529 301.4124 0054972 322.7001 160.3828 14.77532051898029
COSMOS 2251 DEB         
1 34325U 93036NX  26074.24887823  .00003600  00000+0  19151-2 0  9996
2 34325  73.8726  29.7343 0189697  29.1270  90.6861 14.05018087868142
COSMOS 2251 DEB         
1 34327U 93036NZ  26074.19409924  .00014058  00000+0  13735-2 0  9995
2 34327  73.9960 346.2340 0032182 145.3768 336.1829 14.92008015908859
COSMOS 2251 DEB         
1 34340U 93036PN  26074.25083030  .00001934  00000+0  13760-2 0  9990
2 34340  74.0788 153.4141 0290051 240.6169 176.7424 13.79927430855446
