[{"OBJECT_NAME":"COSMOS 2251 DEB","OBJECT_ID":"1993-036LW","EPOCH":"2026-03-15T05:35:35.328192","MEAN_MOTION":14.57897011,"ECCENTRICITY":0.00213658,"INCLINATION":74.0214,"RA_OF_ASC_NODE":269.3675,"ARG_OF_PERICENTER":29.4344,"MEAN_ANOMALY":92.0385,"EPHEMERIS_TYPE":0,"CLASSIFICATION_TYPE":"U","NORAD_CAT_ID":34276,"ELEMENT_SET_NO":999,"REV_AT_EPOCH":89940,"BSTAR":0.00060120958,"MEAN_MOTION_DOT":2.736e-5,"MEAN_MOTION_DDOT":0},{"OBJECT_NAME":"COSMOS 2251 DEB","OBJECT_ID":"1993-036MT","EPOCH":"2026-03-15T05:49:26.801184","MEAN_MOTION":14.36717898,"ECCENTRICITY":0.00168906,"INCLINATION":74.0465,"RA_OF_ASC_NODE":114.3657,"ARG_OF_PERICENTER":169.5789,"MEAN_ANOMALY":260.9343,"EPHEMERIS_TYPE":0,"CLASSIFICATION_TYPE":"U","NORAD_CAT_ID":34297,"ELEMENT_SET_NO":999,"REV_AT_EPOCH":89393,"BSTAR":0.00011234093,"MEAN_MOTION_DOT":3.05e-6,"MEAN_MOTION_DDOT":0},{"OBJECT_NAME":"COSMOS 2251 DEB","OBJECT_ID":"1993-036MX","EPOCH":"2026-03-15T04:45:30.736224","MEAN_MOTION":14.90717853,"ECCENTRICITY":0.00045416,"INCLINATION":74.0047,"RA_OF_ASC_NODE":342.078,"ARG_OF_PERICENTER":40.027,"MEAN_ANOMALY":80.2668,"EPHEMERIS_TYPE":0,"CLASSIFICATION_TYPE":"U","NORAD_CAT_ID":34301,"ELEMENT_SET_NO":999,"REV_AT_EPOCH":89775,"BSTAR":0.0039016366,"MEAN_MOTION_DOT":0.00038498,"MEAN_MOTION_DDOT":0},{"OBJECT_NAME":"COSMOS 2251 DEB","OBJECT_ID":"1993-036MY","EPOCH":"2026-03-14T18:43:32.801664","MEAN_MOTION":14.3985273,"ECCENTRICITY":0.00782747,"INCLINATION":74.1799,"RA_OF_ASC_NODE":315.0829,"ARG_OF_PERICENTER":144.936,"MEAN_ANOMALY":331.4889,"EPHEMERIS_TYPE":0,"CLASSIFICATION_TYPE":"U","NORAD_CAT_ID":34302,"ELEMENT_SET_NO":999,"REV_AT_EPOCH":89045,"BSTAR":0.00081714505,"MEAN_MOTION_DOT":2.635e-5,"MEAN_MOTION_DDOT":0},{"OBJECT_NAME":"COSMOS 2251 DEB","OBJECT_ID":"1993-036MZ","EPOCH":"2026-03-15T04:44:27.133728","MEAN_MOTION":14.55705933,"ECCENTRICITY":0.01376409,"INCLINATION":74.0037,"RA_OF_ASC_NODE":112.5951,"ARG_OF_PERICENTER":229.8013,"MEAN_ANOMALY":193.7397,"EPHEMERIS_TYPE":0,"CLASSIFICATION_TYPE":"U","NORAD_CAT_ID":34303,"ELEMENT_SET_NO":999,"REV_AT_EPOCH":89307,"BSTAR":0.00094068586,"MEAN_MOTION_DOT":4.645e-5,"MEAN_MOTION_DDOT":0},{"OBJECT_NAME":"COSMOS 2251 DEB","OBJECT_ID":"1993-036NA","EPOCH":"2026-03-15T01:59:06.912096","MEAN_MOTION":14.38695827,"ECCENTRICITY":0.01263001,"INCLINATION":74.0141,"RA_OF_ASC_NODE":312.1398,"ARG_OF_PERICENTER":68.1233,"MEAN_ANOMALY":49.6747,"EPHEMERIS_TYPE":0,"CLASSIFICATION_TYPE":"U","NORAD_CAT_ID":34304,"ELEMENT_SET_NO":999,"REV_AT_EPOCH":88624,"BSTAR":0.0012350284,"MEAN_MOTION_DOT":4.133e-5,"MEAN_MOTION_DDOT":0},{"OBJECT_NAME":"COSMOS 2251 DEB","OBJECT_ID":"1993-036ND","EPOCH":"2026-03-15T06:44:35.417472","MEAN_MOTION":13.54487757,"ECCENTRICITY":0.03928952,"INCLINATION":74.0541,"RA_OF_ASC_NODE":164.6053,"ARG_OF_PERICENTER":335.1394,"MEAN_ANOMALY":84.6233,"EPHEMERIS_TYPE":0,"CLASSIFICATION_TYPE":"U","NORAD_CAT_ID":34307,"ELEMENT_SET_NO":999,"REV_AT_EPOCH":84115,"BSTAR":0.00064006006,"MEAN_MOTION_DOT":6.93e-6,"MEAN_MOTION_DDOT":0},{"OBJECT_NAME":"COSMOS 2251 DEB","OBJECT_ID":"1993-036NK","EPOCH":"2026-03-15T03:07:49.462176","MEAN_MOTION":15.54923895,"ECCENTRICITY":0.00178123,"INCLINATION":73.959,"RA_OF_ASC_NODE":107.2317,"ARG_OF_PERICENTER":276.0958,"MEAN_ANOMALY":83.8228,"EPHEMERIS_TYPE":0,"CLASSIFICATION_TYPE":"U","NORAD_CAT_ID":34313,"ELEMENT_SET_NO":999,"REV_AT_EPOCH":90480,"BSTAR":0.0074996615,"MEAN_MOTION_DOT":0.0053986,"MEAN_MOTION_DDOT":0},{"OBJECT_NAME":"COSMOS 2251 DEB","OBJECT_ID":"1993-036NL","EPOCH":"2026-03-15T07:15:13.274208","MEAN_MOTION":14.176826,"ECCENTRICITY":0.01055,"INCLINATION":74.0052,"RA_OF_ASC_NODE":143.167,"ARG_OF_PERICENTER":228.9645,"MEAN_ANOMALY":247.03,"EPHEMERIS_TYPE":0,"CLASSIFICATION_TYPE":"U","NORAD_CAT_ID":34314,"ELEMENT_SET_NO":999,"REV_AT_EPOCH":87969,"BSTAR":0.00055615117,"MEAN_MOTION_DOT":1.17e-5,"MEAN_MOTION_DDOT":0},{"OBJECT_NAME":"COSMOS 2251 DEB","OBJECT_ID":"1993-036NN","EPOCH":"2026-03-15T06:13:52.935744","MEAN_MOTION":14.96636718,"ECCENTRICITY":0.00121399,"INCLINATION":74.0639,"RA_OF_ASC_NODE":150.8916,"ARG_OF_PERICENTER":250.5863,"MEAN_ANOMALY":109.401,"EPHEMERIS_TYPE":0,"CLASSIFICATION_TYPE":"U","NORAD_CAT_ID":34316,"ELEMENT_SET_NO":999,"REV_AT_EPOCH":90591,"BSTAR":0.0019240754,"MEAN_MOTION_DOT":0.00022005,"MEAN_MOTION_DDOT":0},{"OBJECT_NAME":"COSMOS 2251 DEB","OBJECT_ID":"1993-036NP","EPOCH":"2026-03-15T05:05:13.079616","MEAN_MOTION":13.65264223,"ECCENTRICITY":0.03364711,"INCLINATION":73.9218,"RA_OF_ASC_NODE":243.4936,"ARG_OF_PERICENTER":215.5218,"MEAN_ANOMALY":324.2806,"EPHEMERIS_TYPE":0,"CLASSIFICATION_TYPE":"U","NORAD_CAT_ID":34317,"ELEMENT_SET_NO":999,"REV_AT_EPOCH":84881,"BSTAR":0.00067302193,"MEAN_MOTION_DOT":7.81e-6,"MEAN_MOTION_DDOT":0},{"OBJECT_NAME":"COSMOS 2251 DEB","OBJECT_ID":"1993-036NT","EPOCH":"2026-03-14T23:47:07.489824","MEAN_MOTION":14.50521608,"ECCENTRICITY":0.0013874,"INCLINATION":74.0318,"RA_OF_ASC_NODE":342.9732,"ARG_OF_PERICENTER":93.4642,"MEAN_ANOMALY":279.3138,"EPHEMERIS_TYPE":0,"CLASSIFICATION_TYPE":"U","NORAD_CAT_ID":34321,"ELEMENT_SET_NO":999,"REV_AT_EPOCH":89824,"BSTAR":0.0005400808,"MEAN_MOTION_DOT":2.09e-5,"MEAN_MOTION_DDOT":0},{"OBJECT_NAME":"COSMOS 2251 DEB","OBJECT_ID":"1993-036NV","EPOCH":"2026-03-15T02:22:35.309856","MEAN_MOTION":14.77532051,"ECCENTRICITY":0.00549727,"INCLINATION":73.9529,"RA_OF_ASC_NODE":301.4124,"ARG_OF_PERICENTER":322.7001,"MEAN_ANOMALY":160.3828,"EPHEMERIS_TYPE":0,"CLASSIFICATION_TYPE":"U","NORAD_CAT_ID":34323,"ELEMENT_SET_NO":999,"REV_AT_EPOCH":89802,"BSTAR":0.0018168912,"MEAN_MOTION_DOT":0.00013288,"MEAN_MOTION_DDOT":0},{"OBJECT_NAME":"COSMOS 2251 DEB","OBJECT_ID":"1993-036NX","EPOCH":"2026-03-15T05:58:23.079072","MEAN_MOTION":14.05018087,"ECCENTRICITY":0.01896971,"INCLINATION":73.8726,"RA_OF_ASC_NODE":29.7343,"ARG_OF_PERICENTER":29.127,"MEAN_ANOMALY":90.6861,"EPHEMERIS_TYPE":0,"CLASSIFICATION_TYPE":"U","NORAD_CAT_ID":34325,"ELEMENT_SET_NO":999,"REV_AT_EPOCH":86814,"BSTAR":0.001915076,"MEAN_MOTION_DOT":3.6e-5,"MEAN_MOTION_DDOT":0},{"OBJECT_NAME":"COSMOS 2251 DEB","OBJECT_ID":"1993-036NZ","EPOCH":"2026-03-15T04:39:30.174336","MEAN_MOTION":14.92008015,"ECCENTRICITY":0.00321828,"INCLINATION":73.996,"RA_OF_ASC_NODE":346.234,"ARG_OF_PERICENTER":145.3768,"MEAN_ANOMALY":336.1829,"EPHEMERIS_TYPE":0,"CLASSIFICATION_TYPE":"U","NORAD_CAT_ID":34327,"ELEMENT_SET_NO":999,"REV_AT_EPOCH":90885,"BSTAR":0.0013735122,"MEAN_MOTION_DOT":0.00014058,"MEAN_MOTION_DDOT":0},{"OBJECT_NAME":"COSMOS 2251 DEB","OBJECT_ID":"1993-036PN","EPOCH":"2026-03-15T06:01:11.737920","MEAN_MOTION":13.7992743,"ECCENTRICITY":0.02900517,"INCLINATION":74.0788,"RA_OF_ASC_NODE":153.4141,"ARG_OF_PERICENTER":240.6169,"MEAN_ANOMALY":176.7424,"EPHEMERIS_TYPE":0,"CLASSIFICATION_TYPE":"U","NORAD_CAT_ID":34340,"ELEMENT_SET_NO":999,"REV_AT_EPOCH":85544,"BSTAR":0.0013760221,"MEAN_MOTION_DOT":1.934e-5,"MEAN_MOTION_DDOT":0}]
